{"type": "FeatureCollection", "features": [{"type": "Feature", "geometry": {"type": "Point", "coordinates": [-78.18, -1.83]}, "properties": {"taxonomy_id": 51877, "scientific_name": "Oncidium sphacelatum", "locality": null, "region": "Central and South America", "elevation_min": null, "elevation_max": null}}, {"type": "Feature", "geometry": {"type": "Point", "coordinates": [-78.18, -1.83]}, "properties": {"taxonomy_id": 51877, "scientific_name": "Oncidium sphacelatum", "locality": null, "region": "Central and South America", "elevation_min": null, "elevation_max": null}}, {"type": "Feature", "geometry": {"type": "Point", "coordinates": [-78.18, -1.83]}, "properties": {"taxonomy_id": 51877, "scientific_name": "Oncidium sphacelatum", "locality": null, "region": "Central and South America", "elevation_min": null, "elevation_max": null}}, {"type": "Feature", "geometry": {"type": "Point", "coordinates": [-78.18, -1.83]}, "properties": {"taxonomy_id": null, "scientific_name": "Epidendrum \"Beauty\"", "locality": null, "region": "Central and South America", "elevation_min": null, "elevation_max": null}}, {"type": "Feature", "geometry": {"type": "Point", "coordinates": [-78.18, -1.83]}, "properties": {"taxonomy_id": 32261, "scientific_name": "Epidendrum ciliare", "locality": null, "region": "Central and South America", "elevation_min": null, "elevation_max": null}}, {"type": "Feature", "geometry": {"type": "Point", "coordinates": [-78.18, -1.83]}, "properties": {"taxonomy_id": 32443, "scientific_name": "Epidendrum echinatum", "locality": null, "region": "Central and South America", "elevation_min": null, "elevation_max": null}}, {"type": "Feature", "geometry": {"type": "Point", "coordinates": [-78.18, -1.83]}, "properties": {"taxonomy_id": null, "scientific_name": "Epidendrum Fuschia", "locality": null, "region": "Central and South America", "elevation_min": null, "elevation_max": null}}, {"type": "Feature", "geometry": {"type": "Point", "coordinates": [-78.18, -1.83]}, "properties": {"taxonomy_id": 32845, "scientific_name": "Epidendrum longipetalum", "locality": null, "region": "Central and South America", "elevation_min": null, "elevation_max": null}}, {"type": "Feature", "geometry": {"type": "Point", "coordinates": [-78.18, -1.83]}, "properties": {"taxonomy_id": 33188, "scientific_name": "Epidendrum parkinsonianum", "locality": null, "region": "Central and South America", "elevation_min": null, "elevation_max": null}}]}